{"type": "FeatureCollection", "features": [ {"type": "Feature", "properties": {"norad_id": 34303, "name": "COSMOS 2251 DEB", "group": "cosmos-2251-debris", "lat": -43.24110231588563, "lon": 113.74688983589522, "alt_km": 811.6934653960734, "timestamp": "2025-12-17T23:38:07.247404+00:00", "meta": {"OBJECT_NAME": "COSMOS 2251 DEB", "OBJECT_ID": "1993-036MZ", "EPOCH": "2025-12-17T13:29:14.076672", "MEAN_MOTION": 14.54515779, "ECCENTRICITY": 0.01352525, "INCLINATION": 74.0057, "RA_OF_ASC_NODE": 278.8996, "ARG_OF_PERICENTER": 56.0342, "MEAN_ANOMALY": 115.8819, "EPHEMERIS_TYPE": 0, "CLASSIFICATION_TYPE": "U", "NORAD_CAT_ID": 34303, "ELEMENT_SET_NO": 999, "REV_AT_EPOCH": 88032, "BSTAR": 0.0011595867, "MEAN_MOTION_DOT": 5.559e-05, "MEAN_MOTION_DDOT": 0}, "tle": {"line1": "1 34303U 93036MZ  25351.56196848  .00005559  00000+0  11596-2 0  9994", "line2": "2 34303  74.0057 278.8996 0135252  56.0342 115.8819 14.54515779880327"}}, "geometry": {"type": "Point", "coordinates": [113.74688983589522, -43.24110231588563]}}, {"type": "Feature", "properties": {"norad_id": 34304, "name": "COSMOS 2251 DEB", "group": "cosmos-2251-debris", "lat": 23.313783124949175, "lon": 120.01694143107409, "alt_km": 828.9005497119288, "timestamp": "2025-12-17T23:38:07.247414+00:00", "meta": {"OBJECT_NAME": "COSMOS 2251 DEB", "OBJECT_ID": "1993-036NA", "EPOCH": "2025-12-17T10:27:42.203232", "MEAN_MOTION": 14.37904422, "ECCENTRICITY": 0.01289728, "INCLINATION": 74.0131, "RA_OF_ASC_NODE": 113.9322, "ARG_OF_PERICENTER": 250.7621, "MEAN_ANOMALY": 172.3717, "EPHEMERIS_TYPE": 0, "CLASSIFICATION_TYPE": "U", "NORAD_CAT_ID": 34304, "ELEMENT_SET_NO": 999, "REV_AT_EPOCH": 87364, "BSTAR": 0.0012017263, "MEAN_MOTION_DOT": 3.968e-05, "MEAN_MOTION_DDOT": 0}, "tle": {"line1": "1 34304U 93036NA  25351.43590513  .00003968  00000+0  12017-2 0  9999", "line2": "2 34304  74.0131 113.9322 0128972 250.7621 172.3717 14.37904422873647"}}, "geometry": {"type": "Point", "coordinates": [120.01694143107409, 23.313783124949175]}}, {"type": "Feature", "properties": {"norad_id": 34307, "name": "COSMOS 2251 DEB", "group": "cosmos-2251-debris", "lat": 73.9993720998334, "lon": 30.284546471096156, "alt_km": 839.7369184775316, "timestamp": "2025-12-17T23:38:07.247424+00:00", "meta": {"OBJECT_NAME": "COSMOS 2251 DEB", "OBJECT_ID": "1993-036ND", "EPOCH": "2025-12-17T07:58:06.173760", "MEAN_MOTION": 13.54327375, "ECCENTRICITY": 0.03919151, "INCLINATION": 74.0535, "RA_OF_ASC_NODE": 305.7461, "ARG_OF_PERICENTER": 135.6743, "MEAN_ANOMALY": 14.7195, "EPHEMERIS_TYPE": 0, "CLASSIFICATION_TYPE": "U", "NORAD_CAT_ID": 34307, "ELEMENT_SET_NO": 999, "REV_AT_EPOCH": 82924, "BSTAR": 0.00057277697, "MEAN_MOTION_DOT": 6.18e-06, "MEAN_MOTION_DDOT": 0}, "tle": {"line1": "1 34307U 93036ND  25351.33201590  .00000618  00000+0  57278-3 0  9993", "line2": "2 34307  74.0535 305.7461 0391915 135.6743  14.7195 13.54327375829248"}}, "geometry": {"type": "Point", "coordinates": [30.284546471096156, 73.9993720998334]}}, {"type": "Feature", "properties": {"norad_id": 34313, "name": "COSMOS 2251 DEB", "group": "cosmos-2251-debris", "lat": 58.9405389398504, "lon": 85.95309361259334, "alt_km": 494.22164531999533, "timestamp": "2025-12-17T23:38:07.247434+00:00", "meta": {"OBJECT_NAME": "COSMOS 2251 DEB", "OBJECT_ID": "1993-036NK", "EPOCH": "2025-12-17T05:44:49.208352", "MEAN_MOTION": 15.1986869, "ECCENTRICITY": 0.00114652, "INCLINATION": 73.9722, "RA_OF_ASC_NODE": 296.0304, "ARG_OF_PERICENTER": 74.3908, "MEAN_ANOMALY": 285.8554, "EPHEMERIS_TYPE": 0, "CLASSIFICATION_TYPE": "U", "NORAD_CAT_ID": 34313, "ELEMENT_SET_NO": 999, "REV_AT_EPOCH": 89133, "BSTAR": 0.003324057, "MEAN_MOTION_DOT": 0.00072147, "MEAN_MOTION_DDOT": 0}, "tle": {"line1": "1 34313U 93036NK  25351.23945843  .00072147  00000+0  33241-2 0  9994", "line2": "2 34313  73.9722 296.0304 0011465  74.3908 285.8554 15.19868690891332"}}, "geometry": {"type": "Point", "coordinates": [85.95309361259334, 58.9405389398504]}}, {"type": "Feature", "properties": {"norad_id": 34314, "name": "COSMOS 2251 DEB", "group": "cosmos-2251-debris", "lat": 10.29301233809962, "lon": -57.990854519108204, "alt_km": 772.3781122910386, "timestamp": "2025-12-17T23:38:07.247444+00:00", "meta": {"OBJECT_NAME": "COSMOS 2251 DEB", "OBJECT_ID": "1993-036NL", "EPOCH": "2025-12-17T07:12:28.351296", "MEAN_MOTION": 14.17434399, "ECCENTRICITY": 0.010304, "INCLINATION": 74.0057, "RA_OF_ASC_NODE": 300.2444, "ARG_OF_PERICENTER": 44.8357, "MEAN_ANOMALY": 75.2667, "EPHEMERIS_TYPE": 0, "CLASSIFICATION_TYPE": "U", "NORAD_CAT_ID": 34314, "ELEMENT_SET_NO": 999, "REV_AT_EPOCH": 86722, "BSTAR": 0.00052988066, "MEAN_MOTION_DOT": 1.106e-05, "MEAN_MOTION_DDOT": 0}, "tle": {"line1": "1 34314U 93036NL  25351.30032814  .00001106  00000+0  52988-3 0  9995", "line2": "2 34314  74.0057 300.2444 0103040  44.8357  75.2667 14.17434399867229"}}, "geometry": {"type": "Point", "coordinates": [-57.990854519108204, 10.29301233809962]}}, {"type": "Feature", "properties": {"norad_id": 34316, "name": "COSMOS 2251 DEB", "group": "cosmos-2251-debris", "lat": 11.344970265179162, "lon": 143.09477566662264, "alt_km": 595.7865321522822, "timestamp": "2025-12-17T23:38:07.247454+00:00", "meta": {"OBJECT_NAME": "COSMOS 2251 DEB", "OBJECT_ID": "1993-036NN", "EPOCH": "2025-12-17T05:10:59.074464", "MEAN_MOTION": 14.91965634, "ECCENTRICITY": 0.00086452, "INCLINATION": 74.0644, "RA_OF_ASC_NODE": 327.9209, "ARG_OF_PERICENTER": 50.4091, "MEAN_ANOMALY": 309.7854, "EPHEMERIS_TYPE": 0, "CLASSIFICATION_TYPE": "U", "NORAD_CAT_ID": 34316, "ELEMENT_SET_NO": 999, "REV_AT_EPOCH": 89276, "BSTAR": 0.001336076, "MEAN_MOTION_DOT": 0.00013533, "MEAN_MOTION_DDOT": 0}, "tle": {"line1": "1 34316U 93036NN  25351.21596151  .00013533  00000+0  13361-2 0  9994", "line2": "2 34316  74.0644 327.9209 0008645  50.4091 309.7854 14.91965634892764"}}, "geometry": {"type": "Point", "coordinates": [143.09477566662264, 11.344970265179162]}}, {"type": "Feature", "properties": {"norad_id": 34317, "name": "COSMOS 2251 DEB", "group": "cosmos-2251-debris", "lat": 41.566100733315885, "lon": 41.93880124559614, "alt_km": 792.4269058249693, "timestamp": "2025-12-17T23:38:07.247465+00:00", "meta": {"OBJECT_NAME": "COSMOS 2251 DEB", "OBJECT_ID": "1993-036NP", "EPOCH": "2025-12-17T13:36:44.803872", "MEAN_MOTION": 13.6512677, "ECCENTRICITY": 0.03366913, "INCLINATION": 73.9245, "RA_OF_ASC_NODE": 27.8109, "ARG_OF_PERICENTER": 16.1323, "MEAN_ANOMALY": 134.2077, "EPHEMERIS_TYPE": 0, "CLASSIFICATION_TYPE": "U", "NORAD_CAT_ID": 34317, "ELEMENT_SET_NO": 999, "REV_AT_EPOCH": 83685, "BSTAR": 0.00041962707, "MEAN_MOTION_DOT": 4.79e-06, "MEAN_MOTION_DDOT": 0}, "tle": {"line1": "1 34317U 93036NP  25351.56718523  .00000479  00000+0  41963-3 0  9997", "line2": "2 34317  73.9245  27.8109 0336691  16.1323 134.2077 13.65126770836853"}}, "geometry": {"type": "Point", "coordinates": [41.93880124559614, 41.566100733315885]}}, {"type": "Feature", "properties": {"norad_id": 34321, "name": "COSMOS 2251 DEB", "group": "cosmos-2251-debris", "lat": -62.83184352987337, "lon": 0.42896779073044716, "alt_km": 722.2365159741794, "timestamp": "2025-12-17T23:38:07.247474+00:00", "meta": {"OBJECT_NAME": "COSMOS 2251 DEB", "OBJECT_ID": "1993-036NT", "EPOCH": "2025-12-17T12:51:03.462336", "MEAN_MOTION": 14.50076456, "ECCENTRICITY": 0.00159255, "INCLINATION": 74.0275, "RA_OF_ASC_NODE": 147.351, "ARG_OF_PERICENTER": 276.6464, "MEAN_ANOMALY": 146.3527, "EPHEMERIS_TYPE": 0, "CLASSIFICATION_TYPE": "U", "NORAD_CAT_ID": 34321, "ELEMENT_SET_NO": 999, "REV_AT_EPOCH": 88556, "BSTAR": 0.00045191418, "MEAN_MOTION_DOT": 1.728e-05, "MEAN_MOTION_DDOT": 0}, "tle": {"line1": "1 34321U 93036NT  25351.53545674  .00001728  00000+0  45191-3 0  9999", "line2": "2 34321  74.0275 147.3510 0015925 276.6464 146.3527 14.50076456885566"}}, "geometry": {"type": "Point", "coordinates": [0.42896779073044716, -62.83184352987337]}}, {"type": "Feature", "properties": {"norad_id": 34323, "name": "COSMOS 2251 DEB", "group": "cosmos-2251-debris", "lat": 3.9540330585753636, "lon": 113.95948360992004, "alt_km": 684.5338153225066, "timestamp": "2025-12-17T23:38:07.247484+00:00", "meta": {"OBJECT_NAME": "COSMOS 2251 DEB", "OBJECT_ID": "1993-036NV", "EPOCH": "2025-12-17T10:53:28.670784", "MEAN_MOTION": 14.74580492, "ECCENTRICITY": 0.0058409, "INCLINATION": 73.9527, "RA_OF_ASC_NODE": 113.8614, "ARG_OF_PERICENTER": 156.8034, "MEAN_ANOMALY": 270.0841, "EPHEMERIS_TYPE": 0, "CLASSIFICATION_TYPE": "U", "NORAD_CAT_ID": 34323, "ELEMENT_SET_NO": 999, "REV_AT_EPOCH": 88509, "BSTAR": 0.0018807507, "MEAN_MOTION_DOT": 0.0001287, "MEAN_MOTION_DDOT": 0}, "tle": {"line1": "1 34323U 93036NV  25351.45380406  .00012870  00000+0  18808-2 0  9996", "line2": "2 34323  73.9527 113.8614 0058409 156.8034 270.0841 14.74580492885093"}}, "geometry": {"type": "Point", "coordinates": [113.95948360992004, 3.9540330585753636]}}, {"type": "Feature", "properties": {"norad_id": 34325, "name": "COSMOS 2251 DEB", "group": "cosmos-2251-debris", "lat": -19.515582883299945, "lon": 177.67885224833415, "alt_km": 988.2976050362695, "timestamp": "2025-12-17T23:38:07.247494+00:00", "meta": {"OBJECT_NAME": "COSMOS 2251 DEB", "OBJECT_ID": "1993-036NX", "EPOCH": "2025-12-17T15:33:09.959616", "MEAN_MOTION": 14.04502088, "ECCENTRICITY": 0.01918728, "INCLINATION": 73.8704, "RA_OF_ASC_NODE": 184.1588, "ARG_OF_PERICENTER": 200.5513, "MEAN_ANOMALY": 235.6303, "EPHEMERIS_TYPE": 0, "CLASSIFICATION_TYPE": "U", "NORAD_CAT_ID": 34325, "ELEMENT_SET_NO": 999, "REV_AT_EPOCH": 85584, "BSTAR": 0.0014140715, "MEAN_MOTION_DOT": 2.634e-05, "MEAN_MOTION_DDOT": 0}, "tle": {"line1": "1 34325U 93036NX  25351.64803194  .00002634  00000+0  14141-2 0  9996", "line2": "2 34325  73.8704 184.1588 0191872 200.5513 235.6303 14.04502088855841"}}, "geometry": {"type": "Point", "coordinates": [177.67885224833415, -19.515582883299945]}}]}